IRIDIUM 171             
1 43929U 19002H   25069.40998659  .00000116  00000+0  34206-4 0  9997
2 43929  86.4049 187.6363 0001659  94.5177 265.6208 14.34218247322482
IRIDIUM 170             
1 43930U 19002J   25069.35356071  .00002338  00000+0  36676-3 0  9999
2 43930  86.6163 187.4329 0002283  84.2767 275.8710 14.72265776331019
IRIDIUM 167             
1 43931U 19002K   25069.40364919  .00000612  00000+0  21145-3 0  9994
2 43931  86.4041 187.4027 0002043  84.5722 275.5707 14.34217730322485
IRIDIUM 174             
1 56728U 23068U   25069.43492048  .00003265  00000+0  42602-3 0  9995
2 56728  86.2034 189.0837 0001701 101.7702 258.3709 14.80245238 97766
IRIDIUM 178             
1 56729U 23068V   25069.49709273  .00002951  00000+0  38479-3 0  9991
2 56729  86.5789 219.0898 0001472 113.5973 246.5403 14.80248922 97778
IRIDIUM 179             
1 56730U 23068W   25069.49167420  .00002193  00000+0  28518-3 0  9996
2 56730  86.6779 226.5725 0002097  95.2262 264.9198 14.80230945 97774
