<?xml version="1.0" encoding="UTF-8"?>
<ndm xmlns:xsi="http://www.w3.org/2001/XMLSchema-instance" xsi:noNamespaceSchemaLocation="https://sanaregistry.org/r/ndmxml_unqualified/ndmxml-2.0.0-master-2.0.xsd">
<omm id="CCSDS_OMM_VERS" version="2.0">
<header><CREATION_DATE/><ORIGINATOR/></header><body><segment><metadata><OBJECT_NAME>IRIDIUM 171</OBJECT_NAME><OBJECT_ID>2019-002H</OBJECT_ID><CENTER_NAME>EARTH</CENTER_NAME><REF_FRAME>TEME</REF_FRAME><TIME_SYSTEM>UTC</TIME_SYSTEM><MEAN_ELEMENT_THEORY>SGP4</MEAN_ELEMENT_THEORY></metadata><data><meanElements><EPOCH>2025-03-10T09:50:22.841376</EPOCH><MEAN_MOTION>14.34218247</MEAN_MOTION><ECCENTRICITY>.0001659</ECCENTRICITY><INCLINATION>86.4049</INCLINATION><RA_OF_ASC_NODE>187.6363</RA_OF_ASC_NODE><ARG_OF_PERICENTER>94.5177</ARG_OF_PERICENTER><MEAN_ANOMALY>265.6208</MEAN_ANOMALY></meanElements><tleParameters><EPHEMERIS_TYPE>0</EPHEMERIS_TYPE><CLASSIFICATION_TYPE>U</CLASSIFICATION_TYPE><NORAD_CAT_ID>43929</NORAD_CAT_ID><ELEMENT_SET_NO>999</ELEMENT_SET_NO><REV_AT_EPOCH>32248</REV_AT_EPOCH><BSTAR>.34206E-4</BSTAR><MEAN_MOTION_DOT>.116E-5</MEAN_MOTION_DOT><MEAN_MOTION_DDOT>0</MEAN_MOTION_DDOT></tleParameters></data></segment></body></omm>
<omm id="CCSDS_OMM_VERS" version="2.0">
<header><CREATION_DATE/><ORIGINATOR/></header><body><segment><metadata><OBJECT_NAME>IRIDIUM 170</OBJECT_NAME><OBJECT_ID>2019-002J</OBJECT_ID><CENTER_NAME>EARTH</CENTER_NAME><REF_FRAME>TEME</REF_FRAME><TIME_SYSTEM>UTC</TIME_SYSTEM><MEAN_ELEMENT_THEORY>SGP4</MEAN_ELEMENT_THEORY></metadata><data><meanElements><EPOCH>2025-03-10T08:29:07.645344</EPOCH><MEAN_MOTION>14.72265776</MEAN_MOTION><ECCENTRICITY>.0002283</ECCENTRICITY><INCLINATION>86.6163</INCLINATION><RA_OF_ASC_NODE>187.4329</RA_OF_ASC_NODE><ARG_OF_PERICENTER>84.2767</ARG_OF_PERICENTER><MEAN_ANOMALY>275.8710</MEAN_ANOMALY></meanElements><tleParameters><EPHEMERIS_TYPE>0</EPHEMERIS_TYPE><CLASSIFICATION_TYPE>U</CLASSIFICATION_TYPE><NORAD_CAT_ID>43930</NORAD_CAT_ID><ELEMENT_SET_NO>999</ELEMENT_SET_NO><REV_AT_EPOCH>33101</REV_AT_EPOCH><BSTAR>.36676E-3</BSTAR><MEAN_MOTION_DOT>.2338E-4</MEAN_MOTION_DOT><MEAN_MOTION_DDOT>0</MEAN_MOTION_DDOT></tleParameters></data></segment></body></omm>
<omm id="CCSDS_OMM_VERS" version="2.0">
<header><CREATION_DATE/><ORIGINATOR/></header><body><segment><metadata><OBJECT_NAME>IRIDIUM 167</OBJECT_NAME><OBJECT_ID>2019-002K</OBJECT_ID><CENTER_NAME>EARTH</CENTER_NAME><REF_FRAME>TEME</REF_FRAME><TIME_SYSTEM>UTC</TIME_SYSTEM><MEAN_ELEMENT_THEORY>SGP4</MEAN_ELEMENT_THEORY></metadata><data><meanElements><EPOCH>2025-03-10T09:41:15.290016</EPOCH><MEAN_MOTION>14.34217730</MEAN_MOTION><ECCENTRICITY>.0002043</ECCENTRICITY><INCLINATION>86.4041</INCLINATION><RA_OF_ASC_NODE>187.4027</RA_OF_ASC_NODE><ARG_OF_PERICENTER>84.5722</ARG_OF_PERICENTER><MEAN_ANOMALY>275.5707</MEAN_ANOMALY></meanElements><tleParameters><EPHEMERIS_TYPE>0</EPHEMERIS_TYPE><CLASSIFICATION_TYPE>U</CLASSIFICATION_TYPE><NORAD_CAT_ID>43931</NORAD_CAT_ID><ELEMENT_SET_NO>999</ELEMENT_SET_NO><REV_AT_EPOCH>32248</REV_AT_EPOCH><BSTAR>.21145E-3</BSTAR><MEAN_MOTION_DOT>.612E-5</MEAN_MOTION_DOT><MEAN_MOTION_DDOT>0</MEAN_MOTION_DDOT></tleParameters></data></segment></body></omm>
<omm id="CCSDS_OMM_VERS" version="2.0">
<header><CREATION_DATE/><ORIGINATOR/></header><body><segment><metadata><OBJECT_NAME>IRIDIUM 174</OBJECT_NAME><OBJECT_ID>2023-068U</OBJECT_ID><CENTER_NAME>EARTH</CENTER_NAME><REF_FRAME>TEME</REF_FRAME><TIME_SYSTEM>UTC</TIME_SYSTEM><MEAN_ELEMENT_THEORY>SGP4</MEAN_ELEMENT_THEORY></metadata><data><meanElements><EPOCH>2025-03-10T10:26:17.129472</EPOCH><MEAN_MOTION>14.80245238</MEAN_MOTION><ECCENTRICITY>.0001701</ECCENTRICITY><INCLINATION>86.2034</INCLINATION><RA_OF_ASC_NODE>189.0837</RA_OF_ASC_NODE><ARG_OF_PERICENTER>101.7702</ARG_OF_PERICENTER><MEAN_ANOMALY>258.3709</MEAN_ANOMALY></meanElements><tleParameters><EPHEMERIS_TYPE>0</EPHEMERIS_TYPE><CLASSIFICATION_TYPE>U</CLASSIFICATION_TYPE><NORAD_CAT_ID>56728</NORAD_CAT_ID><ELEMENT_SET_NO>999</ELEMENT_SET_NO><REV_AT_EPOCH>9776</REV_AT_EPOCH><BSTAR>.42602E-3</BSTAR><MEAN_MOTION_DOT>.3265E-4</MEAN_MOTION_DOT><MEAN_MOTION_DDOT>0</MEAN_MOTION_DDOT></tleParameters></data></segment></body></omm>
<omm id="CCSDS_OMM_VERS" version="2.0">
<header><CREATION_DATE/><ORIGINATOR/></header><body><segment><metadata><OBJECT_NAME>IRIDIUM 178</OBJECT_NAME><OBJECT_ID>2023-068V</OBJECT_ID><CENTER_NAME>EARTH</CENTER_NAME><REF_FRAME>TEME</REF_FRAME><TIME_SYSTEM>UTC</TIME_SYSTEM><MEAN_ELEMENT_THEORY>SGP4</MEAN_ELEMENT_THEORY></metadata><data><meanElements><EPOCH>2025-03-10T11:55:48.811872</EPOCH><MEAN_MOTION>14.80248922</MEAN_MOTION><ECCENTRICITY>.0001472</ECCENTRICITY><INCLINATION>86.5789</INCLINATION><RA_OF_ASC_NODE>219.0898</RA_OF_ASC_NODE><ARG_OF_PERICENTER>113.5973</ARG_OF_PERICENTER><MEAN_ANOMALY>246.5403</MEAN_ANOMALY></meanElements><tleParameters><EPHEMERIS_TYPE>0</EPHEMERIS_TYPE><CLASSIFICATION_TYPE>U</CLASSIFICATION_TYPE><NORAD_CAT_ID>56729</NORAD_CAT_ID><ELEMENT_SET_NO>999</ELEMENT_SET_NO><REV_AT_EPOCH>9777</REV_AT_EPOCH><BSTAR>.38479E-3</BSTAR><MEAN_MOTION_DOT>.2951E-4</MEAN_MOTION_DOT><MEAN_MOTION_DDOT>0</MEAN_MOTION_DDOT></tleParameters></data></segment></body></omm>
<omm id="CCSDS_OMM_VERS" version="2.0">
<header><CREATION_DATE/><ORIGINATOR/></header><body><segment><metadata><OBJECT_NAME>IRIDIUM 179</OBJECT_NAME><OBJECT_ID>2023-068W</OBJECT_ID><CENTER_NAME>EARTH</CENTER_NAME><REF_FRAME>TEME</REF_FRAME><TIME_SYSTEM>UTC</TIME_SYSTEM><MEAN_ELEMENT_THEORY>SGP4</MEAN_ELEMENT_THEORY></metadata><data><meanElements><EPOCH>2025-03-10T11:48:00.650880</EPOCH><MEAN_MOTION>14.80230945</MEAN_MOTION><ECCENTRICITY>.0002097</ECCENTRICITY><INCLINATION>86.6779</INCLINATION><RA_OF_ASC_NODE>226.5725</RA_OF_ASC_NODE><ARG_OF_PERICENTER>95.2262</ARG_OF_PERICENTER><MEAN_ANOMALY>264.9198</MEAN_ANOMALY></meanElements><tleParameters><EPHEMERIS_TYPE>0</EPHEMERIS_TYPE><CLASSIFICATION_TYPE>U</CLASSIFICATION_TYPE><NORAD_CAT_ID>56730</NORAD_CAT_ID><ELEMENT_SET_NO>999</ELEMENT_SET_NO><REV_AT_EPOCH>9777</REV_AT_EPOCH><BSTAR>.28518E-3</BSTAR><MEAN_MOTION_DOT>.2193E-4</MEAN_MOTION_DOT><MEAN_MOTION_DDOT>0</MEAN_MOTION_DDOT></tleParameters></data></segment></body></omm>
</ndm>
